HTV-X1                  
1 66174U 25241A   26093.62636246  .00005755  00000+0  19199-3 0  9996
2 66174  51.6359 312.8669 0007284 268.9502  91.0645 15.32516519 24765
SZ-21 MODULE            
1 66515U 25246C   26093.57082555  .00056445  00000+0  44364-3 0  9996
2 66515  41.4748  49.9717 0002969 226.3876 133.6720 15.70603524 21985
SHENZHOU-22             
1 66645U 25272A   26093.66213341  .00030768  00000+0  34553-3 0  9997
2 66645  41.4676  56.0662 0003775 116.3854 243.7373 15.61949710281151
SOYUZ-MS 28             
1 66664U 25275A   26093.48852459  .00011755  00000+0  22309-3 0  9991
2 66664  51.6327 309.7562 0006234 267.4493  92.5781 15.48743801559862
DUPLEX                  
1 66906U 98067XS  26093.61713118  .00041119  00000+0  54344-3 0  9993
2 66906  51.6283 304.6160 0003135 229.2114 130.8607 15.57924061 19013
ISS OBJECT XT           
1 66907U 98067XT  26093.60075588  .00334505  00000+0  17271-2 0  9996
2 66907  51.6218 297.7092 0006998 242.7873 117.2415 15.79591466 19109
ISS OBJECT XU           
1 66908U 98067XU  26093.59591513  .00344825  00000+0  17512-2 0  9990
2 66908  51.6218 297.6720 0007154 242.4305 117.5970 15.79925475 19109
SILVERSAT               
1 66909U 98067XV  26093.59103388  .00548962  00000+0  19643-2 0  9995
2 66909  51.6185 296.1195 0008817 250.9036 109.1014 15.86824567 19121
ISS OBJECT XW           
1 66910U 98067XW  26093.61400187  .00282542  00000+0  16011-2 0  9992
2 66910  51.6202 297.7902 0007292 238.9971 121.0314 15.77662540 19101
ISS OBJECT XX           
1 66911U 98067XX  26092.94054922  .01110416  58672-3  27185-2 0  9997
2 66911  51.6159 297.7328 0010664 251.8408 108.1439 15.95513790 19039
ISS OBJECT XY           
1 66912U 98067XY  26093.59318585  .00156867  00000+0  13012-2 0  9999
2 66912  51.6247 300.6900 0004838 236.7157 123.3377 15.69174943 19053
KNACKSAT-2              
1 67683U 98067XZ  26092.92528466  .00067722  00000+0  10267-2 0  9992
2 67683  51.6310 311.2469 0010421 275.3642  84.6159 15.53933498  8552
