CCSDS_OMM_VERS = 2.0
CREATION_DATE  = 
ORIGINATOR     = 

OBJECT_NAME    = HTV-X1
OBJECT_ID      = 2025-241A
CENTER_NAME    = EARTH
REF_FRAME      = TEME
TIME_SYSTEM    = UTC
MEAN_ELEMENT_THEORY = SGP/SGP4

EPOCH          = 2026-04-03T15:01:57.716544
MEAN_MOTION    = 15.32516519
ECCENTRICITY   = .00072843
INCLINATION    = 51.6359
RA_OF_ASC_NODE = 312.8669
ARG_OF_PERICENTER = 268.9502
MEAN_ANOMALY   = 91.0645

EPHEMERIS_TYPE = 0
CLASSIFICATION_TYPE = U
NORAD_CAT_ID   = 66174
ELEMENT_SET_NO = 999
REV_AT_EPOCH   = 2476
BSTAR          = .19198734E-3
MEAN_MOTION_DOT = .5755E-4
MEAN_MOTION_DDOT = 0

CCSDS_OMM_VERS = 2.0
CREATION_DATE  = 
ORIGINATOR     = 

OBJECT_NAME    = SZ-21 MODULE
OBJECT_ID      = 2025-246C
CENTER_NAME    = EARTH
REF_FRAME      = TEME
TIME_SYSTEM    = UTC
MEAN_ELEMENT_THEORY = SGP/SGP4

EPOCH          = 2026-04-03T13:41:59.327520
MEAN_MOTION    = 15.70603524
ECCENTRICITY   = .00029696
INCLINATION    = 41.4748
RA_OF_ASC_NODE = 49.9717
ARG_OF_PERICENTER = 226.3876
MEAN_ANOMALY   = 133.6720

EPHEMERIS_TYPE = 0
CLASSIFICATION_TYPE = U
NORAD_CAT_ID   = 66515
ELEMENT_SET_NO = 999
REV_AT_EPOCH   = 2198
BSTAR          = .44364236E-3
MEAN_MOTION_DOT = .56445E-3
MEAN_MOTION_DDOT = 0

CCSDS_OMM_VERS = 2.0
CREATION_DATE  = 
ORIGINATOR     = 

OBJECT_NAME    = SHENZHOU-22
OBJECT_ID      = 2025-272A
CENTER_NAME    = EARTH
REF_FRAME      = TEME
TIME_SYSTEM    = UTC
MEAN_ELEMENT_THEORY = SGP/SGP4

EPOCH          = 2026-04-03T15:53:28.326624
MEAN_MOTION    = 15.61949710
ECCENTRICITY   = .00037754
INCLINATION    = 41.4676
RA_OF_ASC_NODE = 56.0662
ARG_OF_PERICENTER = 116.3854
MEAN_ANOMALY   = 243.7373

EPHEMERIS_TYPE = 0
CLASSIFICATION_TYPE = U
NORAD_CAT_ID   = 66645
ELEMENT_SET_NO = 999
REV_AT_EPOCH   = 28115
BSTAR          = .34552756E-3
MEAN_MOTION_DOT = .30768E-3
MEAN_MOTION_DDOT = 0

CCSDS_OMM_VERS = 2.0
CREATION_DATE  = 
ORIGINATOR     = 

OBJECT_NAME    = SOYUZ-MS 28
OBJECT_ID      = 2025-275A
CENTER_NAME    = EARTH
REF_FRAME      = TEME
TIME_SYSTEM    = UTC
MEAN_ELEMENT_THEORY = SGP/SGP4

EPOCH          = 2026-04-03T11:43:28.524576
MEAN_MOTION    = 15.48743801
ECCENTRICITY   = .00062343
INCLINATION    = 51.6327
RA_OF_ASC_NODE = 309.7562
ARG_OF_PERICENTER = 267.4493
MEAN_ANOMALY   = 92.5781

EPHEMERIS_TYPE = 0
CLASSIFICATION_TYPE = U
NORAD_CAT_ID   = 66664
ELEMENT_SET_NO = 999
REV_AT_EPOCH   = 55986
BSTAR          = .22309225E-3
MEAN_MOTION_DOT = .11755E-3
MEAN_MOTION_DDOT = 0

CCSDS_OMM_VERS = 2.0
CREATION_DATE  = 
ORIGINATOR     = 

OBJECT_NAME    = DUPLEX
OBJECT_ID      = 1998-067XS
CENTER_NAME    = EARTH
REF_FRAME      = TEME
TIME_SYSTEM    = UTC
MEAN_ELEMENT_THEORY = SGP/SGP4

EPOCH          = 2026-04-03T14:48:40.133952
MEAN_MOTION    = 15.57924061
ECCENTRICITY   = .0003135
INCLINATION    = 51.6283
RA_OF_ASC_NODE = 304.6160
ARG_OF_PERICENTER = 229.2114
MEAN_ANOMALY   = 130.8607

EPHEMERIS_TYPE = 0
CLASSIFICATION_TYPE = U
NORAD_CAT_ID   = 66906
ELEMENT_SET_NO = 999
REV_AT_EPOCH   = 1901
BSTAR          = .54343584E-3
MEAN_MOTION_DOT = .41119E-3
MEAN_MOTION_DDOT = 0

CCSDS_OMM_VERS = 2.0
CREATION_DATE  = 
ORIGINATOR     = 

OBJECT_NAME    = ISS OBJECT XT
OBJECT_ID      = 1998-067XT
CENTER_NAME    = EARTH
REF_FRAME      = TEME
TIME_SYSTEM    = UTC
MEAN_ELEMENT_THEORY = SGP/SGP4

EPOCH          = 2026-04-03T14:25:05.308032
MEAN_MOTION    = 15.79591466
ECCENTRICITY   = .00069987
INCLINATION    = 51.6218
RA_OF_ASC_NODE = 297.7092
ARG_OF_PERICENTER = 242.7873
MEAN_ANOMALY   = 117.2415

EPHEMERIS_TYPE = 0
CLASSIFICATION_TYPE = U
NORAD_CAT_ID   = 66907
ELEMENT_SET_NO = 999
REV_AT_EPOCH   = 1910
BSTAR          = .17270896E-2
MEAN_MOTION_DOT = .334505E-2
MEAN_MOTION_DDOT = 0

CCSDS_OMM_VERS = 2.0
CREATION_DATE  = 
ORIGINATOR     = 

OBJECT_NAME    = ISS OBJECT XU
OBJECT_ID      = 1998-067XU
CENTER_NAME    = EARTH
REF_FRAME      = TEME
TIME_SYSTEM    = UTC
MEAN_ELEMENT_THEORY = SGP/SGP4

EPOCH          = 2026-04-03T14:18:07.067232
MEAN_MOTION    = 15.79925475
ECCENTRICITY   = .00071544
INCLINATION    = 51.6218
RA_OF_ASC_NODE = 297.6720
ARG_OF_PERICENTER = 242.4305
MEAN_ANOMALY   = 117.5970

EPHEMERIS_TYPE = 0
CLASSIFICATION_TYPE = U
NORAD_CAT_ID   = 66908
ELEMENT_SET_NO = 999
REV_AT_EPOCH   = 1910
BSTAR          = .17512306E-2
MEAN_MOTION_DOT = .344825E-2
MEAN_MOTION_DDOT = 0

CCSDS_OMM_VERS = 2.0
CREATION_DATE  = 
ORIGINATOR     = 

OBJECT_NAME    = SILVERSAT
OBJECT_ID      = 1998-067XV
CENTER_NAME    = EARTH
REF_FRAME      = TEME
TIME_SYSTEM    = UTC
MEAN_ELEMENT_THEORY = SGP/SGP4

EPOCH          = 2026-04-03T14:11:05.327232
MEAN_MOTION    = 15.86824567
ECCENTRICITY   = .00088177
INCLINATION    = 51.6185
RA_OF_ASC_NODE = 296.1195
ARG_OF_PERICENTER = 250.9036
MEAN_ANOMALY   = 109.1014

EPHEMERIS_TYPE = 0
CLASSIFICATION_TYPE = U
NORAD_CAT_ID   = 66909
ELEMENT_SET_NO = 999
REV_AT_EPOCH   = 1912
BSTAR          = .19643272E-2
MEAN_MOTION_DOT = .548962E-2
MEAN_MOTION_DDOT = 0

CCSDS_OMM_VERS = 2.0
CREATION_DATE  = 
ORIGINATOR     = 

OBJECT_NAME    = ISS OBJECT XW
OBJECT_ID      = 1998-067XW
CENTER_NAME    = EARTH
REF_FRAME      = TEME
TIME_SYSTEM    = UTC
MEAN_ELEMENT_THEORY = SGP/SGP4

EPOCH          = 2026-04-03T14:44:09.761568
MEAN_MOTION    = 15.77662540
ECCENTRICITY   = .00072924
INCLINATION    = 51.6202
RA_OF_ASC_NODE = 297.7902
ARG_OF_PERICENTER = 238.9971
MEAN_ANOMALY   = 121.0314

EPHEMERIS_TYPE = 0
CLASSIFICATION_TYPE = U
NORAD_CAT_ID   = 66910
ELEMENT_SET_NO = 999
REV_AT_EPOCH   = 1910
BSTAR          = .16010665E-2
MEAN_MOTION_DOT = .282542E-2
MEAN_MOTION_DDOT = 0

CCSDS_OMM_VERS = 2.0
CREATION_DATE  = 
ORIGINATOR     = 

OBJECT_NAME    = ISS OBJECT XX
OBJECT_ID      = 1998-067XX
CENTER_NAME    = EARTH
REF_FRAME      = TEME
TIME_SYSTEM    = UTC
MEAN_ELEMENT_THEORY = SGP/SGP4

EPOCH          = 2026-04-02T22:34:23.452608
MEAN_MOTION    = 15.95513790
ECCENTRICITY   = .00106649
INCLINATION    = 51.6159
RA_OF_ASC_NODE = 297.7328
ARG_OF_PERICENTER = 251.8408
MEAN_ANOMALY   = 108.1439

EPHEMERIS_TYPE = 0
CLASSIFICATION_TYPE = U
NORAD_CAT_ID   = 66911
ELEMENT_SET_NO = 999
REV_AT_EPOCH   = 1903
BSTAR          = .27184661E-2
MEAN_MOTION_DOT = .1110416E-1
MEAN_MOTION_DDOT = .58671647E-3

CCSDS_OMM_VERS = 2.0
CREATION_DATE  = 
ORIGINATOR     = 

OBJECT_NAME    = ISS OBJECT XY
OBJECT_ID      = 1998-067XY
CENTER_NAME    = EARTH
REF_FRAME      = TEME
TIME_SYSTEM    = UTC
MEAN_ELEMENT_THEORY = SGP/SGP4

EPOCH          = 2026-04-03T14:14:11.257440
MEAN_MOTION    = 15.69174943
ECCENTRICITY   = .00048381
INCLINATION    = 51.6247
RA_OF_ASC_NODE = 300.6900
ARG_OF_PERICENTER = 236.7157
MEAN_ANOMALY   = 123.3377

EPHEMERIS_TYPE = 0
CLASSIFICATION_TYPE = U
NORAD_CAT_ID   = 66912
ELEMENT_SET_NO = 999
REV_AT_EPOCH   = 1905
BSTAR          = .13011826E-2
MEAN_MOTION_DOT = .156867E-2
MEAN_MOTION_DDOT = 0

CCSDS_OMM_VERS = 2.0
CREATION_DATE  = 
ORIGINATOR     = 

OBJECT_NAME    = KNACKSAT-2
OBJECT_ID      = 1998-067XZ
CENTER_NAME    = EARTH
REF_FRAME      = TEME
TIME_SYSTEM    = UTC
MEAN_ELEMENT_THEORY = SGP/SGP4

EPOCH          = 2026-04-02T22:12:24.594624
MEAN_MOTION    = 15.53933498
ECCENTRICITY   = .00104217
INCLINATION    = 51.6310
RA_OF_ASC_NODE = 311.2469
ARG_OF_PERICENTER = 275.3642
MEAN_ANOMALY   = 84.6159

EPHEMERIS_TYPE = 0
CLASSIFICATION_TYPE = U
NORAD_CAT_ID   = 67683
ELEMENT_SET_NO = 999
REV_AT_EPOCH   = 855
BSTAR          = .1026702E-2
MEAN_MOTION_DOT = .67722E-3
MEAN_MOTION_DDOT = 0

